[{"OBJECT_NAME":"UHETSAT","OBJECT_ID":"2023-185E","EPOCH":"2026-03-09T22:39:26.455680","MEAN_MOTION":15.29797662,"ECCENTRICITY":0.00118435,"INCLINATION":97.3584,"RA_OF_ASC_NODE":137.3576,"ARG_OF_PERICENTER":307.7346,"MEAN_ANOMALY":52.2821,"EPHEMERIS_TYPE":0,"CLASSIFICATION_TYPE":"U","NORAD_CAT_ID":58466,"ELEMENT_SET_NO":999,"REV_AT_EPOCH":12611,"BSTAR":0.00030513019,"MEAN_MOTION_DOT":8.749e-5,"MEAN_MOTION_DDOT":0},{"OBJECT_NAME":"STARLINK-32381","OBJECT_ID":"2024-164S","EPOCH":"2026-03-09T08:37:00.540192","MEAN_MOTION":15.30191281,"ECCENTRICITY":0.00011776,"INCLINATION":53.1606,"RA_OF_ASC_NODE":92.8854,"ARG_OF_PERICENTER":82.0387,"MEAN_ANOMALY":278.0748,"EPHEMERIS_TYPE":0,"CLASSIFICATION_TYPE":"U","NORAD_CAT_ID":61066,"ELEMENT_SET_NO":999,"REV_AT_EPOCH":8342,"BSTAR":2.7520458e-5,"MEAN_MOTION_DOT":4.56e-6,"MEAN_MOTION_DDOT":0}]
